STARLINK-36287          
1 67708U 26025R   26056.58336806  .00042504  00000+0  22207-3 0  9991
2 67708  97.2846 167.5920 0001246 121.8670 341.3396 15.80765521  4063
STARLINK-36698          
1 67709U 26025S   26056.58336806  .00113496  00000+0  58782-3 0  9998
2 67709  97.2837 167.6080 0001517  94.6362  47.9659 15.80732580  3900
STARLINK-36344          
1 67710U 26025T   26056.58336806  .00058038  00000+0  30207-3 0  9992
2 67710  97.2842 167.5978 0001464  87.7485  30.3656 15.80790218  4066
STARLINK-36687          
1 67711U 26025U   26056.58336806  .00007300  00000+0  38869-4 0  9992
2 67711  97.2839 167.6023 0001910 126.0805   3.3940 15.80788126  4065
STARLINK-36705          
1 67712U 26025V   26056.58336806 -.01897551  00000+0 -12580-1 0  9990
2 67712  97.2779 167.6108 0002044  83.8244  70.3900 15.78523719  3969
STARLINK-36708          
1 67713U 26025W   26056.58336806  .00024217  00000+0  12663-3 0  9993
2 67713  97.2808 167.6273 0001407 109.5140  80.7781 15.80847592  3962
STARLINK-36702          
1 67714U 26025X   26056.58336806  .00174354  00000+0  89689-3 0  9994
2 67714  97.2817 167.6223 0001673 120.9574  58.8880 15.80718200  3690
STARLINK-36718          
1 67715U 26025Y   26056.58336806  .00119450  00000+0  61801-3 0  9997
2 67715  97.2784 167.6374 0001624  71.4475 143.4693 15.80738763  3900
STARLINK-36715          
1 67716U 26025Z   26056.58336806  .00134568  00000+0  69447-3 0  9999
2 67716  97.2819 167.6332 0001511  78.1931 124.9922 15.80753435  3968
STARLINK-36385          
1 67717U 26025AA  26056.58336806  .00078420  00000+0  40770-3 0  9992
2 67717  97.2816 167.6175 0000572  98.8053  68.8157 15.80750810  3961
CZ-2F DEB               
1 67718U 26024E   26056.53575645  .00179977  00000+0  34234-2 0  9999
2 67718  50.3164  78.2036 0249247 232.2339 125.5806 15.20082823  2783
CZ-2F DEB               
1 67719U 26024F   26056.57113395  .00128777  00000+0  32100-2 0  9996
2 67719  49.7912  80.0880 0324523 222.9049 134.6159 14.99817082  2421
CZ-2F DEB               
1 67720U 26024G   26056.53717741  .00129015  00000+0  33030-2 0  9998
2 67720  49.8310  80.6348 0335156 219.1235 138.5037 14.97156623  2737
STARLINK-36772          
1 67721U 26026A   26042.75317130 -.00000725  22934-5  00000+0 0  9999
2 67721  97.2800  95.5280 0003400 259.0800  81.2200 16.07750770    15
STARLINK-36796          
1 67722U 26026B   26056.58336806  .00246972  00000+0  12603-2 0  9991
2 67722  97.2827 110.6096 0001108  72.1935 219.4726 15.80705374  3364
STARLINK-36369          
1 67723U 26026C   26056.58336806  .00128828  00000+0  66667-3 0  9991
2 67723  97.2830 110.6126 0001407  82.0041 215.5123 15.80708758  3360
STARLINK-36752          
1 67724U 26026D   26056.58336806 -.00004951  00000+0 -25145-4 0  9991
2 67724  97.2800 110.6161 0001510  90.4114 214.6942 15.80795532  3361
STARLINK-36754          
1 67725U 26026E   26056.58336806  .00203655  00000+0  10427-2 0  9997
2 67725  97.2805 110.6181 0001527 117.9563 193.1763 15.80745068  3361
STARLINK-36755          
1 67726U 26026F   26056.58336806  .00109301  00000+0  56584-3 0  9996
2 67726  97.2799 110.6203 0001353  95.7417 223.0525 15.80753991  3360
STARLINK-36741          
1 67727U 26026G   26056.58336806  .00151126  00000+0  77844-3 0  9991
2 67727  97.2794 110.6221 0001548 102.8352 220.9044 15.80750740  3361
STARLINK-36757          
1 67728U 26026H   26056.58336806  .00130486  00000+0  67429-3 0  9996
2 67728  97.2797 110.6239 0001092 103.4652 227.1878 15.80735949  3366
STARLINK-36751          
1 67729U 26026J   26056.58336806  .00070494  00000+0  36646-3 0  9996
2 67729  97.2793 110.6296 0000947  95.5243 249.2041 15.80777043  3369
STARLINK-36747          
1 67730U 26026K   26056.58336806  .00169545  00000+0  87128-3 0  9995
2 67730  97.2794 110.6273 0001166  95.5124 240.6697 15.80753358  3364
STARLINK-36315          
1 67731U 26026L   26056.58336806  .00251996  00000+0  12859-2 0  9996
2 67731  97.2792 110.6327 0001439 100.4399 249.8075 15.80692811  3363
STARLINK-36260          
1 67732U 26026M   26056.58336806  .00169060  00000+0  86943-3 0  9993
2 67732  97.2788 110.6353 0001302  79.6791 277.2786 15.80738390  3367
STARLINK-36746          
1 67733U 26026N   26056.58336806 -.01880832  00000+0 -11865-1 0  9993
2 67733  97.2735 110.6358 0001126  88.5930 272.3181 15.79598705  3360
STARLINK-36749          
1 67734U 26026P   26056.58336806  .00052360  00000+0  27284-3 0  9992
2 67734  97.2758 110.6389 0000902  96.6865 271.9616 15.80785844  3360
STARLINK-36691          
1 67735U 26026Q   26056.58336806  .00019544  00000+0  10249-3 0  9993
2 67735  97.2730 110.6466 0001250  91.2796 296.8184 15.80827632  3502
STARLINK-36317          
1 67736U 26026R   26056.58336806  .00045230  00000+0  23578-3 0  9994
2 67736  97.2731 110.6420 0001242  91.5121 287.1131 15.80803674  3369
STARLINK-36330          
1 67737U 26026S   26056.58336806  .00096160  00000+0  49791-3 0  9998
2 67737  97.2724 110.6490 0001422  91.7244 302.6173 15.80786362  3360
STARLINK-36327          
1 67738U 26026T   26056.58336806  .00195095  00000+0  99957-3 0  9995
2 67738  97.2722 110.6530 0001149 114.0068 288.3228 15.80752218  3367
STARLINK-36329          
1 67739U 26026U   26056.58336806  .00296405  00000+0  15038-2 0  9990
2 67739  97.2682 110.6710 0001434 105.1415 345.3122 15.80704366  3365
STARLINK-36737          
1 67740U 26026V   26056.58336806  .00226175  00000+0  11556-2 0  9990
2 67740  97.2716 110.6555 0001083  92.7011 318.3923 15.80731386  3366
STARLINK-36740          
1 67741U 26026W   26056.58336806  .00158262  00000+0  81425-3 0  9995
2 67741  97.2693 110.6677 0001488  94.2833 345.7812 15.80757262  3366
STARLINK-36693          
1 67742U 26026X   26056.58336806  .00125155  00000+0  64550-3 0  9991
2 67742  97.2714 110.6587 0001561  94.1611 323.5376 15.80792243  3509
STARLINK-36717          
1 67743U 26026Y   26056.58336806  .00191653  00000+0  98222-3 0  9991
2 67743  97.2689 110.6644 0001012  89.5966 343.8292 15.80754880  3504
STARLINK-36692          
1 67744U 26026Z   26056.58336806  .00151172  00000+0  77822-3 0  9997
2 67744  97.2710 110.6616 0001635  93.4933 332.6137 15.80763254  3361
2026-027A               
1 67746U 26027A   26056.57108651  .00008518  00000+0  42847-3 0  9998
2 67746  97.4881 185.7155 0009468 238.6725 121.3582 15.17439387  2025
2026-027B               
1 67747U 26027B   26056.57019917  .00008469  00000+0  42478-3 0  9990
2 67747  97.4876 185.7156 0009598 241.2288 118.7982 15.17540483  2023
2026-027C               
1 67748U 26027C   26056.56914870  .00006101  00000+0  30629-3 0  9998
2 67748  97.4888 185.7193 0009947 244.1727 115.8481 15.17625840  2029
2026-027D               
1 67749U 26027D   26056.63351689  .00009907  00000+0  49171-3 0  9999
2 67749  97.4883 185.7857 0009747 248.7837 111.2356 15.17858743  1987
2026-027E               
1 67750U 26027E   26056.56754630  .00008530  00000+0  42419-3 0  9995
2 67750  97.4894 185.7226 0008889 250.3273 109.7001 15.17845625  2020
2026-027F               
1 67751U 26027F   26056.63260771  .00013788  00000+0  67948-3 0  9997
2 67751  97.4893 185.7893 0010088 249.8889 110.1260 15.18021632  2039
2026-027G               
1 67752U 26027G   26056.63270046  .00009032  00000+0  44762-3 0  9990
2 67752  97.4888 185.7877 0009223 252.4534 107.5692 15.17941927  2038
2026-027H               
1 67753U 26027H   26056.58994899  .00344011  23616-5  59010-3 0  9999
2 67753  97.5123 186.7051 0248817 289.7090  67.7483 15.65089406  2089
2026-027J               
1 67754U 26027J   26056.60554952  .00924705  24121-5  12139-2 0  9991
2 67754  97.5081 186.8366 0207094 288.4308  69.4544 15.77256314  2032
2026-028A               
1 67756U 26028A   26056.28892402 -.00000171  00000+0  00000+0 0  9991
2 67756   0.4997 288.8926 0042029 229.9232 201.3318  0.99526192   136
KUIPER-00159            
1 67764U 26030A   26056.59133287  .00025071  00000+0  73224-3 0  9993
2 67764  51.8856 277.4834 0004303  19.9292 340.1861 15.35151074  3235
KUIPER-00160            
1 67765U 26030B   26056.59201770  .00021818  00000+0  64039-3 0  9996
2 67765  51.8822 277.4830 0004558  28.0516 332.0715 15.35077722  3232
KUIPER-00177            
1 67766U 26030C   26056.58429977  .00023455  00000+0  66938-3 0  9996
2 67766  51.8830 277.4371 0000679  68.6817 291.4242 15.35921331  3233
KUIPER-00178            
1 67767U 26030D   26056.59318634  .00023310  00000+0  68610-3 0  9994
2 67767  51.8846 277.4944 0005928  16.1328 343.9845 15.34942684  3239
KUIPER-00180            
1 67768U 26030E   26056.60960664  .00029822  00000+0  93808-3 0  9994
2 67768  51.8827 277.5951 0014202  34.7685 325.4225 15.32619154  3233
KUIPER-00197            
1 67769U 26030F   26056.58582454  .00030682  00000+0  87460-3 0  9992
2 67769  51.8833 277.4469 0001583  73.3584 286.7576 15.35809412  3238
KUIPER-00198            
1 67770U 26030G   26056.58887518  .00031032  00000+0  89418-3 0  9998
2 67770  51.8815 277.4632 0002677  28.8641 331.2492 15.35463616  3231
KUIPER-00199            
1 67771U 26030H   26056.60228398  .00021303  00000+0  64980-3 0  9994
2 67771  51.8824 277.5483 0010266  26.0155 334.1344 15.33839642  3232
KUIPER-00200            
1 67772U 26030J   26056.58074484  .00025218  00000+0  70723-3 0  9998
2 67772  51.8811 277.4121 0002155 163.2049 196.9009 15.36424458  3231
KUIPER-00203            
1 67773U 26030K   26056.60464534  .00022896  00000+0  70299-3 0  9998
2 67773  51.8815 277.5611 0012470  28.0995 332.0661 15.33561290  3230
KUIPER-00205            
1 67774U 26030L   26056.58648291  .00035715  00000+0  10162-2 0  9996
2 67774  51.8815 277.4484 0002061 357.8914   2.2063 15.35791886  3237
KUIPER-00208            
1 67775U 26030M   26056.60899746  .00018604  00000+0  58672-3 0  9990
2 67775  51.8850 277.5973 0014616  26.5328 333.6402 15.32819191  3234
